NORAD_CAT_ID,OBJECT_NAME,OBJECT_TYPE,EPOCH,MEAN_MOTION,ECCENTRICITY,INCLINATION,RA_OF_ASC_NODE,ARG_OF_PERICENTER,MEAN_ANOMALY,BSTAR,MEAN_MOTION_DOT,MEAN_MOTION_DDOT,TLE_LINE0,TLE_LINE1,TLE_LINE2,SEMIMAJOR_AXIS,PERIOD,APOGEE,PERIGEE,DECAYED
52995.0,STARLINK-4296,PAYLOAD,2024-07-04 13:47:57,15.08833353,0.0001085,53.2176,326.5027,93.5336,266.578,6.5356e-05,7.52e-06,0.0,0 STARLINK-4296,1 52995U 22076K   24186.57496744  .00000752  00000-0  65356-4 0  9997,2 52995  53.2176 326.5027 0001085  93.5336 266.5780 15.08833353110289,6917.901,95.438,540.516,539.015,0.0
52995.0,STARLINK-4296,PAYLOAD,2024-07-04 15:23:20,15.088378,0.0001174,53.2188,326.2067,93.7135,266.3992,3.8908e-05,3.31e-06,0.0,0 STARLINK-4296,1 52995U 22076K   24186.64120645  .00000331  00000-0  38908-4 0  9995,2 52995  53.2188 326.2067 0001174  93.7135 266.3992 15.08837800110296,6917.887,95.438,540.564,538.94,0.0
52995.0,STARLINK-4296,PAYLOAD,2024-07-05 13:38:44,15.08838203,0.0001075,53.2178,322.0421,81.0731,279.0382,9.2553e-05,1.185e-05,0.0,0 STARLINK-4296,1 52995U 22076K   24187.56856517  .00001185  00000-0  92553-4 0  9995,2 52995  53.2178 322.0421 0001075  81.0731 279.0382 15.08838203110433,6917.886,95.438,540.495,539.007,0.0
52995.0,STARLINK-4296,PAYLOAD,2024-07-05 15:14:06,15.08847161,9.56e-05,53.2171,321.7441,84.073,276.0371,5.7326e-06,-1.96e-06,0.0,0 STARLINK-4296,1 52995U 22076K   24187.63480176 -.00000196  00000-0  57326-5 0  9999,2 52995  53.2171 321.7441 0000956  84.0730 276.0371 15.08847161110914,6917.859,95.437,540.385,539.062,0.0
52995.0,STARLINK-4296,PAYLOAD,2024-07-06 08:43:22,15.08829079,0.0001595,53.2195,318.4757,84.1771,275.9403,-3.2524e-05,-8.05e-06,0.0,0 STARLINK-4296,1 52995U 22076K   24188.36345689 -.00000805  00000-0 -32524-4 0  9999,2 52995  53.2195 318.4757 0001595  84.1771 275.9403 15.08829079111024,6917.914,95.438,540.882,538.675,0.0
52995.0,STARLINK-4296,PAYLOAD,2024-07-06 13:29:31,15.08825464,0.0001238,53.2199,317.5806,99.6706,260.4426,8.7028e-05,1.097e-05,0.0,0 STARLINK-4296,1 52995U 22076K   24188.56217432  .00001097  00000-0  87028-4 0  9996,2 52995  53.2199 317.5806 0001238  99.6706 260.4426 15.08825464110584,6917.925,95.438,540.646,538.933,0.0
52995.0,STARLINK-4296,PAYLOAD,2024-07-06 15:04:55,15.08831709,0.0001425,53.2185,317.2861,79.3813,280.734,-6.1399e-05,-1.265e-05,0.0,0 STARLINK-4296,1 52995U 22076K   24188.62841636 -.00001265  00000-0 -61399-4 0  9994,2 52995  53.2185 317.2861 0001425  79.3813 280.7340 15.08831709110599,6917.906,95.438,540.757,538.785,0.0
52995.0,STARLINK-4296,PAYLOAD,2024-07-07 02:12:36,15.0883562,0.0001478,53.2196,315.2027,89.7291,270.387,-1.3764e-05,-5.07e-06,0.0,0 STARLINK-4296,1 52995U 22076K   24189.09209349 -.00000507  00000-0 -13764-4 0  9996,2 52995  53.2196 315.2027 0001478  89.7291 270.3870 15.08835620111136,6917.894,95.438,540.781,538.736,0.0
52995.0,STARLINK-4296,PAYLOAD,2024-07-07 08:34:09,15.0883825,0.000129,53.2186,314.0131,91.1223,268.9917,2.5136e-05,1.12e-06,0.0,0 STARLINK-4296,1 52995U 22076K   24189.35705023  .00000112  00000-0  25136-4 0  9991,2 52995  53.2186 314.0131 0001290  91.1223 268.9917 15.08838250110701,6917.886,95.438,540.643,538.858,0.0
52995.0,STARLINK-4296,PAYLOAD,2024-07-07 14:55:41,15.08841892,0.0001479,53.2186,312.8238,98.8602,261.2558,7.8187e-05,9.57e-06,0.0,0 STARLINK-4296,1 52995U 22076K   24189.62200648  .00000957  00000-0  78187-4 0  9995,2 52995  53.2186 312.8238 0001479  98.8602 261.2558 15.08841892111219,6917.875,95.437,540.763,538.716,0.0
52995.0,STARLINK-4296,PAYLOAD,2024-07-08 13:11:05,15.08836303,0.0001391,53.2183,308.6615,93.02,267.0952,0.00013027,1.786e-05,0.0,0 STARLINK-4296,1 52995U 22076K   24190.54936935  .00001786  00000-0  13027-3 0  9995,2 52995  53.2183 308.6615 0001391  93.0200 267.0952 15.08836303111350,6917.892,95.438,540.719,538.794,0.0
52995.0,STARLINK-4296,PAYLOAD,2024-07-08 14:46:28,15.08842288,0.0001331,53.2185,308.3642,94.8779,265.2365,0.00014012,1.943e-05,0.0,0 STARLINK-4296,1 52995U 22076K   24190.61560537  .00001943  00000-0  14012-3 0  9994,2 52995  53.2185 308.3642 0001331  94.8779 265.2365 15.08842288110898,6917.873,95.437,540.659,538.818,0.0
52995.0,STARLINK-4296,PAYLOAD,2024-07-09 14:37:15,15.08841001,0.0001451,53.2182,303.9055,92.2238,267.8921,2.2286e-05,6.7e-07,0.0,0 STARLINK-4296,1 52995U 22076K   24191.60920953  .00000067  00000-0  22286-4 0  9995,2 52995  53.2182 303.9055 0001451  92.2238 267.8921 15.08841001111045,6917.877,95.437,540.746,538.739,0.0
52995.0,STARLINK-4296,PAYLOAD,2024-07-10 14:28:02,15.08841736,0.0001419,53.218,299.4474,106.533,253.5819,-2.952e-05,-7.58e-06,0.0,0 STARLINK-4296,1 52995U 22076K   24192.60281099 -.00000758  00000-0 -29520-4 0  9994,2 52995  53.2180 299.4474 0001419 106.5330 253.5819 15.08841736111192,6917.875,95.437,540.722,538.758,0.0
52995.0,STARLINK-4296,PAYLOAD,2024-07-11 14:18:49,15.08842091,0.0001136,53.2164,294.9831,90.2556,269.8566,7.3367e-05,8.8e-06,0.0,0 STARLINK-4296,1 52995U 22076K   24193.59640812  .00000880  00000-0  73367-4 0  9997,2 52995  53.2164 294.9831 0001136  90.2556 269.8566 15.08842091111347,6917.874,95.437,540.525,538.953,0.0
52995.0,STARLINK-4296,PAYLOAD,2024-07-12 12:34:13,15.08839235,0.0001151,53.2154,290.8199,91.34,268.7724,3.4197e-05,2.56e-06,0.0,0 STARLINK-4296,1 52995U 22076K   24194.52377312  .00000256  00000-0  34197-4 0  9998,2 52995  53.2154 290.8199 0001151  91.3400 268.7724 15.08839235111952,6917.883,95.438,540.544,538.951,0.0
52995.0,STARLINK-4296,PAYLOAD,2024-07-12 14:09:36,15.0884262,0.0001274,53.2166,290.5229,91.9742,268.1396,6.3629e-05,7.25e-06,0.0,0 STARLINK-4296,1 52995U 22076K   24194.59001072  .00000725  00000-0  63629-4 0  9995,2 52995  53.2166 290.5229 0001274  91.9742 268.1396 15.08842620111497,6917.872,95.437,540.619,538.856,0.0
52995.0,STARLINK-4296,PAYLOAD,2024-07-13 12:25:00,15.0884459,0.0001229,53.2171,286.3564,94.0667,266.0465,1.2506e-05,-8.9e-07,0.0,0 STARLINK-4296,1 52995U 22076K   24195.51737060 -.00000089  00000-0  12506-4 0  9993,2 52995  53.2171 286.3564 0001229  94.0667 266.0465 15.08844590111636,6917.866,95.437,540.582,538.881,0.0
52995.0,STARLINK-4296,PAYLOAD,2024-07-13 23:32:42,15.08846718,0.000124,53.2172,284.2759,90.5948,269.5186,3.1662e-05,2.16e-06,0.0,0 STARLINK-4296,1 52995U 22076K   24195.98104809  .00000216  00000-0  31662-4 0  9998,2 52995  53.2172 284.2759 0001240  90.5948 269.5186 15.08846718112178,6917.86,95.437,540.583,538.867,0.0
52995.0,STARLINK-4296,PAYLOAD,2024-07-14 12:15:47,15.08849216,0.0001429,53.2179,281.8958,89.8726,270.243,2.5939e-05,1.25e-06,0.0,0 STARLINK-4296,1 52995U 22076K   24196.51096746  .00000125  00000-0  25939-4 0  9997,2 52995  53.2179 281.8958 0001429  89.8726 270.2430 15.08849216111786,6917.852,95.437,540.706,538.729,0.0
52995.0,STARLINK-4296,PAYLOAD,2024-07-15 12:06:34,15.08843126,0.0001415,53.2172,277.4372,90.8232,269.2922,2.1767e-05,5.9e-07,0.0,0 STARLINK-4296,1 52995U 22076K   24197.50457117  .00000059  00000-0  21767-4 0  9991,2 52995  53.2172 277.4372 0001415  90.8232 269.2922 15.08843126112407,6917.871,95.437,540.715,538.757,0.0
52995.0,STARLINK-4296,PAYLOAD,2024-07-16 05:35:49,15.08834487,0.0001397,53.2168,274.1671,89.9611,270.1541,1.7728e-06,-2.6e-06,0.0,0 STARLINK-4296,1 52995U 22076K   24198.23321733 -.00000260  00000-0  17728-5 0  9994,2 52995  53.2168 274.1671 0001397  89.9611 270.1541 15.08834487112517,6917.897,95.438,540.729,538.796,0.0
52995.0,STARLINK-4296,PAYLOAD,2024-07-16 11:57:22,15.08842817,0.0001351,53.2172,272.9775,89.0929,271.0218,-1.5265e-05,-5.31e-06,0.0,0 STARLINK-4296,1 52995U 22076K   24198.49817281 -.00000531  00000-0 -15265-4 0  9995,2 52995  53.2172 272.9775 0001351  89.0929 271.0218 15.08842817112085,6917.872,95.437,540.671,538.802,0.0
52995.0,STARLINK-4296,PAYLOAD,2024-07-17 05:26:37,15.08827082,0.000151,53.218,269.7111,101.4302,258.6859,-1.4609e-05,-5.2e-06,0.0,0 STARLINK-4296,1 52995U 22076K   24199.22682591 -.00000520  00000-0 -14609-4 0  9990,2 52995  53.2180 269.7111 0001510 101.4302 258.6859 15.08827082112666,6917.92,95.438,540.829,538.74,0.0
52995.0,STARLINK-4296,PAYLOAD,2024-07-17 11:48:10,15.08830002,0.0001384,53.2179,268.5216,91.2311,268.884,1.1896e-05,-9.9e-07,0.0,0 STARLINK-4296,1 52995U 22076K   24199.49178605 -.00000099  00000-0  11896-4 0  9990,2 52995  53.2179 268.5216 0001384  91.2311 268.8840 15.08830002112234,6917.911,95.438,540.733,538.819,0.0
52995.0,STARLINK-4296,PAYLOAD,2024-07-18 03:42:01,15.0883637,0.000159,53.2171,265.5452,105.821,254.2958,5.9552e-05,6.6e-06,0.0,0 STARLINK-4296,1 52995U 22076K   24200.15418297  .00000660  00000-0  59552-4 0  9994,2 52995  53.2171 265.5452 0001590 105.8210 254.2958 15.08836370112800,6917.891,95.438,540.856,538.657,0.0
52995.0,STARLINK-4296,PAYLOAD,2024-07-18 11:38:56,15.08842842,0.0001402,53.2172,264.0603,102.4579,257.657,0.00011995,1.622e-05,0.0,0 STARLINK-4296,1 52995U 22076K   24200.48537821  .00001622  00000-0  11995-3 0  9992,2 52995  53.2172 264.0603 0001402 102.4579 257.6570 15.08842842112387,6917.872,95.437,540.707,538.767,0.0
52995.0,STARLINK-4296,PAYLOAD,2024-07-19 11:29:44,15.08838031,0.0001397,53.2166,259.5987,83.6183,276.4968,0.00010618,1.402e-05,0.0,0 STARLINK-4296,1 52995U 22076K   24201.47898378  .00001402  00000-0  10618-3 0  9996,2 52995  53.2166 259.5987 0001397  83.6183 276.4968 15.08838031113003,6917.886,95.438,540.718,538.785,0.0
52995.0,STARLINK-4296,PAYLOAD,2024-07-19 21:02:03,15.08839755,0.0001351,53.2157,257.8127,79.575,280.5395,6.0288e-05,6.72e-06,0.0,0 STARLINK-4296,1 52995U 22076K   24201.87642391  .00000672  00000-0  60288-4 0  9999,2 52995  53.2157 257.8127 0001351  79.5750 280.5395 15.08839755112591,6917.881,95.438,540.681,538.812,0.0
52995.0,STARLINK-4296,PAYLOAD,2024-07-20 11:20:31,15.08845817,0.0001223,53.2153,255.1357,75.4306,284.6822,2.0227e-05,3.4e-07,0.0,0 STARLINK-4296,1 52995U 22076K   24202.47258128  .00000034  00000-0  20227-4 0  9998,2 52995  53.2153 255.1357 0001223  75.4306 284.6822 15.08845817112689,6917.863,95.437,540.574,538.882,0.0
